2022-032A               
1 52153U 22032A   22108.48448888  .00000967  00000+0  10567-3 0  9993
2 52153  97.7948 158.3983 0011593 192.0474 168.0479 14.90106264  2881
2022-032C               
1 52155U 22032C   22108.53180145  .00000951  00000+0  99695-4 0  9993
2 52155  97.8013 158.5048 0015492 222.0010 138.0002 14.91816542  2891
2022-032D               
1 52156U 22032D   22108.46419625  .00001878  00000+0  19109-3 0  9994
2 52156  97.7877 158.4069 0015490 222.4232 137.5745 14.91882770  2893
2022-033A               
1 52157U 22033A   22108.49160525  .00001039  00000+0  16440-3 0  9995
2 52157  97.9480 191.4987 0013000 197.3816 162.6950 14.74289684  2494
GNOMES-3                
1 52158U 22033B   22108.48534619  .00001234  00000+0  19145-3 0  9996
2 52158  97.9489 191.5089 0012315 208.2421 151.8121 14.74843411  2494
2022-033C               
1 52159U 22033C   22108.48214074  .00000372  00000+0  62805-4 0  9991
2 52159  97.9777 191.5493 0007180 219.4447 140.6239 14.74979185  2494
ALFACRUX                
1 52160U 22033D   22108.18183239  .00008189  00000+0  37774-3 0  9998
2 52160  97.3892 190.7081 0009294 235.2771 124.7589 15.20461806  2518
ARCSAT-1                
1 52161U 22033E   22108.51070373  .00004757  00000+0  22119-3 0  9994
2 52161  97.3878 191.0259 0009037 229.2474 130.7977 15.20410456  2560
LYNK TOWER 1            
1 52162U 22033F   22108.50499488  .00003760  00000+0  17292-3 0  9995
2 52162  97.3869 191.0287 0009842 212.5495 147.5135 15.20914832  2563
ION SCV-005             
1 52163U 22033G   22108.50522416  .00005645  00000+0  25917-3 0  9991
2 52163  97.4378 191.0350 0010533 207.9803 152.0867 15.20755685  2563
SPACEBEE-136            
1 52164U 22033H   22108.50289727  .00013084  00000+0  58722-3 0  9993
2 52164  97.3822 191.0203 0009217 219.8968 140.1591 15.21273635  2568
HAWK-4B                 
1 52165U 22033J   22108.50404085  .00009164  00000+0  41267-3 0  9990
2 52165  97.3873 191.0346 0009796 221.7994 138.2494 15.21249276  2560
SPACEBEE-138            
1 52166U 22033K   22108.50331747  .00011504  00000+0  51736-3 0  9998
2 52166  97.3841 191.0242 0010838 211.4439 148.6150 15.21221540  2568
HAWK-4A                 
1 52167U 22033L   22108.50523477  .00002140  00000+0  99580-4 0  9998
2 52167  97.3855 191.0296 0009571 216.9409 143.1169 15.20978116  2569
NUSAT-23 (ANNIE MAUNDER)
1 52168U 22033M   22108.18927242  .00006581  00000+0  30169-3 0  9991
2 52168  97.3853 190.7105 0008857 221.5768 199.0572 15.20752871  2510
2022-033N               
1 52169U 22033N   22108.50050927  .00006241  00000+0  28111-3 0  9992
2 52169  97.3872 191.0404 0011600 216.8178 143.2263 15.21358836  2567
HAWK-4C                 
1 52170U 22033P   22108.50082300  .00002344  00000+0  10813-3 0  9994
2 52170  97.3868 191.0350 0011704 209.2361 150.8221 15.21167789  2562
NUSAT-25 (MARIA TELKES) 
1 52171U 22033Q   22108.76205188  .00009178  00000+0  40937-3 0  9996
2 52171  97.3877 191.2988 0011998 211.5247 148.5272 15.21553770  2600
NUSAT-27 (SALLY RIDE)   
1 52172U 22033R   22108.76087651  .00004288  00000+0  19245-3 0  9995
2 52172  97.3859 191.2944 0011801 206.6469 153.4162 15.21657497  2601
SHAKUNTALA              
1 52173U 22033S   22108.75847436  .00010475  00000+0  46173-3 0  9995
2 52173  97.3908 191.3152 0013281 209.4155 150.6335 15.21906543  2606
2022-033T               
1 52174U 22033T   22108.49390534  .00009361  00000+0  41166-3 0  9998
2 52174  97.3863 191.0429 0013235 204.8749 155.1850 15.22019994  2561
BDSAT                   
1 52175U 22033U   22108.49358640  .00009061  00000+0  39816-3 0  9997
2 52175  97.3891 191.0531 0013552 207.0824 152.9707 15.22050309  2569
SPACEBEE-130            
1 52176U 22033V   22108.50471085  .00013943  00000+0  62832-3 0  9997
2 52176  97.3832 191.0185 0007472 211.4408 148.6382 15.21132379  2569
SPACEBEE-139            
1 52177U 22033W   22108.17664082  .00012873  00000+0  58197-3 0  9992
2 52177  97.3840 190.6991 0010267 218.2155 141.8354 15.21020105  2511
NUSAT-24 (KALPANA CHAW*)
1 52178U 22033X   22108.77018408  .00004886  00000+0  22443-3 0  9994
2 52178  97.3883 191.2920 0009423 222.0157 138.0357 15.20813309  2588
SPACEBEE-129            
1 52179U 22033Y   22108.50600581  .00010950  00000+0  49680-3 0  9996
2 52179  97.3833 191.0183 0008835 219.7983 140.2606 15.20950313  2566
SPACEBEE-134            
1 52180U 22033Z   22108.50530062  .00012526  00000+0  56629-3 0  9996
2 52180  97.3838 191.0207 0009086 219.5088 140.5486 15.21034930  2561
SPACEBEE-131            
1 52181U 22033AA  22108.44001936  .00012275  00000+0  55573-3 0  9991
2 52181  97.3834 190.9546 0008879 221.1744 138.8822 15.20993527  2557
SPACEBEE-128            
1 52182U 22033AB  22108.44020206  .00011499  00000+0  52142-3 0  9999
2 52182  97.3843 190.9575 0008928 219.2784 140.7805 15.20956928  2554
SPACEBEE-133            
1 52183U 22033AC  22108.50564937  .00012675  00000+0  57339-3 0  9991
2 52183  97.3835 191.0195 0008927 220.7326 139.3243 15.21012239  2553
2022-033AD              
1 52184U 22033AD  22108.50635969  .00006065  00000+0  27839-3 0  9994
2 52184  97.3869 191.0277 0009733 213.9170 146.1444 15.20736226  2567
SPACEBEE-132            
1 52185U 22033AE  22108.17594541  .00011403  00000+0  51530-3 0  9995
2 52185  97.3841 190.7003 0008409 234.2348 125.8106 15.21079892  2517
SPACEBEE-137            
1 52186U 22033AF  22108.50502469  .00012241  00000+0  55310-3 0  9992
2 52186  97.3840 191.0218 0009217 219.6748 140.3814 15.21060582  2567
SPACEBEE-135            
1 52187U 22033AG  22108.17592666  .00012192  00000+0  55063-3 0  9994
2 52187  97.3848 190.7011 0008693 216.8630 143.2009 15.21079300  2510
PLANTSAT                
1 52188U 22033AH  22108.49837119  .00008332  00000+0  36631-3 0  9996
2 52188  97.3871 191.0389 0005061 231.8049 128.2732 15.22130160  2560
KLEOS C                 
1 52189U 22033AJ  22108.50504827  .00010174  00000+0  46113-3 0  9999
2 52189  97.3803 191.0231 0010116 210.8005 149.2638 15.20994382  2568
KLEOS D                 
1 52190U 22033AK  22108.50504146  .00010065  00000+0  45624-3 0  9990
2 52190  97.3806 191.0241 0010071 210.7717 149.2930 15.20994410  2560
SUCHAI-3                
1 52191U 22033AL  22108.50785772  .00008395  00000+0  39046-3 0  9991
2 52191  97.3973 191.0287 0011402 193.0423 167.0519 15.20149589  2562
2022-034A               
1 52195U 22034A   22108.58745755  .00133355  00000+0  24541-2 0  9999
2 52195  53.0015 266.0481 0012584 347.4913  12.5779 15.48171953  2485
GLOBAL-18               
1 52196U 22034B   22108.60506864  .00018361  00000+0  39631-3 0  9995
2 52196  53.0055 266.1632 0009437 348.9711  11.1084 15.44581929  2482
GLOBAL-20               
1 52197U 22034C   22108.59946060  .00018455  00000+0  39090-3 0  9993
2 52197  53.0044 266.1242 0010293 338.5592  21.4978 15.45126201  2487
GAOFEN-3 03             
1 52200U 22035A   22108.39500543  .00000054  00000+0  28135-4 0  9994
2 52200  98.4164 117.1679 0006002 189.1039 171.0063 14.44810906  1640
CZ-4C R/B               
1 52201U 22035B   22108.60456979  .00000746  00000+0  12054-3 0  9992
2 52201  98.3985 117.8143 0112048  14.6197 345.8200 14.70555450  1709
COSMOS 2554             
1 52202U 22036A   22108.56899394 -.00000058  00000+0  12554-4 0  9994
2 52202  67.1497 324.5418 0006937 265.8532  94.1757 13.96673602  1603
SL-4 R/B                
1 52203U 22036B   22108.55731071  .00128582  76113-5  66570-3 0  9993
2 52203  67.1360 320.0979 0444946  82.2793 282.8617 15.07042625  1668
AXIOM-1                 
1 52204U 22037A   22107.52570546  .00008287  00000+0  15243-3 0  9995
2 52204  51.6422 277.0308 0004702  33.7999  66.9864 15.50111059335777
CHINASAT 6D             
1 52255U 22038A   22106.17739715 -.00000347  00000+0  00000+0 0  9998
2 52255  28.4631  20.6165 7288754 179.6852 183.1434  2.28095705    28
CZ-3B R/B               
1 52256U 22038B   22106.98508792 -.00001057  12175-5  00000+0 0  9998
2 52256  28.4754  20.2913 7219492 179.3584 182.5406  2.38783343    41
DAQI 1                  
1 52257U 22039A   22108.56311491 -.00003784  00000+0 -78017-3 0  9999
2 52257  98.1377  50.3866 0005016  28.2813  67.8962 14.59964970   408
CZ-4C R/B               
1 52258U 22039B   22108.55876776  .00000831  00000+0  76539-4 0  9997
2 52258  98.1635  50.5481 0140169  53.3783 308.0235 14.90604627   414
